[{"OBJECT_NAME":"STARLINK-37000","OBJECT_ID":"2026-041Z","EPOCH":"2026-03-07T06:00:00.999648","MEAN_MOTION":16.01565804,"ECCENTRICITY":7.43e-5,"INCLINATION":53.1596,"RA_OF_ASC_NODE":74.702,"ARG_OF_PERICENTER":70.3232,"MEAN_ANOMALY":77.8466,"EPHEMERIS_TYPE":0,"CLASSIFICATION_TYPE":"U","NORAD_CAT_ID":68063,"ELEMENT_SET_NO":999,"REV_AT_EPOCH":198,"BSTAR":-0.0024631621,"MEAN_MOTION_DOT":-0.01412151,"MEAN_MOTION_DDOT":0.00063281105},{"OBJECT_NAME":"STARLINK-36996","OBJECT_ID":"2026-041AA","EPOCH":"2026-03-07T06:00:00.999648","MEAN_MOTION":16.0169877,"ECCENTRICITY":7.108e-5,"INCLINATION":53.1597,"RA_OF_ASC_NODE":74.699,"ARG_OF_PERICENTER":69.3466,"MEAN_ANOMALY":80.282,"EPHEMERIS_TYPE":0,"CLASSIFICATION_TYPE":"U","NORAD_CAT_ID":68064,"ELEMENT_SET_NO":999,"REV_AT_EPOCH":198,"BSTAR":-0.0024447202,"MEAN_MOTION_DOT":-0.01412497,"MEAN_MOTION_DDOT":0.00063403145},{"OBJECT_NAME":"STARLINK-36836","OBJECT_ID":"2026-041AB","EPOCH":"2026-03-07T06:00:00.999648","MEAN_MOTION":16.01938922,"ECCENTRICITY":6.387e-5,"INCLINATION":53.1597,"RA_OF_ASC_NODE":74.6934,"ARG_OF_PERICENTER":74.9844,"MEAN_ANOMALY":77.2545,"EPHEMERIS_TYPE":0,"CLASSIFICATION_TYPE":"U","NORAD_CAT_ID":68065,"ELEMENT_SET_NO":999,"REV_AT_EPOCH":198,"BSTAR":-0.0023981493,"MEAN_MOTION_DOT":-0.014053,"MEAN_MOTION_DDOT":0.00062981497},{"OBJECT_NAME":"STARLINK-36976","OBJECT_ID":"2026-041AC","EPOCH":"2026-03-07T06:00:00.999648","MEAN_MOTION":16.02070943,"ECCENTRICITY":7.297e-5,"INCLINATION":53.1595,"RA_OF_ASC_NODE":74.6906,"ARG_OF_PERICENTER":68.0861,"MEAN_ANOMALY":85.5458,"EPHEMERIS_TYPE":0,"CLASSIFICATION_TYPE":"U","NORAD_CAT_ID":68066,"ELEMENT_SET_NO":999,"REV_AT_EPOCH":198,"BSTAR":-0.0023845796,"MEAN_MOTION_DOT":-0.01408192,"MEAN_MOTION_DDOT":0.00063312206},{"OBJECT_NAME":"STARLINK-36929","OBJECT_ID":"2026-041AD","EPOCH":"2026-03-07T06:00:00.999648","MEAN_MOTION":16.01835905,"ECCENTRICITY":7.498e-5,"INCLINATION":53.1596,"RA_OF_ASC_NODE":74.6959,"ARG_OF_PERICENTER":65.1699,"MEAN_ANOMALY":85.8742,"EPHEMERIS_TYPE":0,"CLASSIFICATION_TYPE":"U","NORAD_CAT_ID":68067,"ELEMENT_SET_NO":999,"REV_AT_EPOCH":198,"BSTAR":-0.0024299391,"MEAN_MOTION_DOT":-0.01415237,"MEAN_MOTION_DDOT":0.00063725681},{"OBJECT_NAME":"STARLINK-36990","OBJECT_ID":"2026-041AE","EPOCH":"2026-03-07T06:00:00.999648","MEAN_MOTION":16.02217741,"ECCENTRICITY":7.203e-5,"INCLINATION":53.1595,"RA_OF_ASC_NODE":74.6873,"ARG_OF_PERICENTER":63.4805,"MEAN_ANOMALY":91.6889,"EPHEMERIS_TYPE":0,"CLASSIFICATION_TYPE":"U","NORAD_CAT_ID":68068,"ELEMENT_SET_NO":999,"REV_AT_EPOCH":198,"BSTAR":-0.0023592871,"MEAN_MOTION_DOT":-0.01405372,"MEAN_MOTION_DDOT":0.0006318416}]
