STARLINK-37000          
1 68063U 26041Z   26066.25001157 -.01412151  63281-3 -24632-2 0  9996
2 68063  53.1596  74.7020 0000743  70.3232  77.8466 16.01565804  1987
STARLINK-36996          
1 68064U 26041AA  26066.25001157 -.01412497  63403-3 -24447-2 0  9990
2 68064  53.1597  74.6990 0000710  69.3466  80.2820 16.01698770  1986
STARLINK-36836          
1 68065U 26041AB  26066.25001157 -.01405300  62981-3 -23981-2 0  9998
2 68065  53.1597  74.6934 0000638  74.9844  77.2545 16.01938922  1982
STARLINK-36976          
1 68066U 26041AC  26066.25001157 -.01408192  63312-3 -23846-2 0  9990
2 68066  53.1595  74.6906 0000729  68.0861  85.5458 16.02070943  1980
STARLINK-36929          
1 68067U 26041AD  26066.25001157 -.01415237  63726-3 -24299-2 0  9991
2 68067  53.1596  74.6959 0000749  65.1699  85.8742 16.01835905  1984
STARLINK-36990          
1 68068U 26041AE  26066.25001157 -.01405372  63184-3 -23593-2 0  9995
2 68068  53.1595  74.6873 0000720  63.4805  91.6889 16.02217741  1988
